     3.02           N: GNSS NAV DATA    R: GLONASS          RINEX VERSION / TYPE
GR25 V3.11          IGN                 20160130 235943 UTC PGM / RUN BY / DATE
GLUT -6.9849193096D-09 0.000000000D+00      0    0          TIME SYSTEM CORR
    17    17  1851     3                                    LEAP SECONDS
                                                            END OF HEADER
R14 2016 01 31 22 15 00 2.758493646979D-04 4.547473508865D-12 7.920000000000D+04
    -7.495112304688D+03 1.902422904968D+00 9.313225746155D-10 0.000000000000D+00
    -1.613861132813D+04 1.642531394958D+00-9.313225746155D-10-7.000000000000D+00
     1.828981738281D+04 2.220600128174D+00-9.313225746155D-10 0.000000000000D+00
R12 2016 01 31 22 15 00 3.432203084230D-05 0.000000000000D+00 7.920000000000D+04
     2.028254492188D+04 1.557319641113D+00 0.000000000000D+00 0.000000000000D+00
     7.466600585938D+03 1.000603675842D+00-0.000000000000D+00-1.000000000000D+00
     1.339620800781D+04-2.924109458923D+00-0.000000000000D+00 0.000000000000D+00
R04 2016 01 31 22 15 00 1.554982736707D-04 9.094947017729D-13 7.920000000000D+04
    -6.528562988281D+03 1.895751953125D-01 9.313225746155D-10 0.000000000000D+00
    -1.704876025391D+04-2.432928085327D+00-1.862645149231D-09 6.000000000000D+00
     1.781809375000D+04-2.260138511658D+00-9.313225746155D-10 0.000000000000D+00
R22 2016 01 31 22 15 00 1.901462674141D-04 9.094947017729D-13 7.920000000000D+04
     1.114756494141D+04-2.808411598206D+00 9.313225746155D-10 0.000000000000D+00
     6.390966308594D+03 1.106089591980D+00-0.000000000000D+00-3.000000000000D+00
     2.201704443359D+04 1.113437652588D+00-1.862645149231D-09 0.000000000000D+00
R23 2016 01 31 22 15 00-7.616542279720D-05-3.637978807092D-12 7.920000000000D+04
     2.314413525391D+04-1.280391693115D+00 9.313225746155D-10 0.000000000000D+00
    -4.845046875000D+03 3.360500335693D-01-9.313225746155D-10 3.000000000000D+00
     9.567039062500D+03 3.266835212708D+00 0.000000000000D+00 0.000000000000D+00
R03 2016 01 31 22 15 00 6.131082773209D-05 0.000000000000D+00 7.920000000000D+04
     2.089555175781D+03-1.204433441162D-01 0.000000000000D+00 0.000000000000D+00
    -2.532968212891D+04-2.883625030518D-01-1.862645149231D-09 5.000000000000D+00
     2.014590332031D+03-3.555735588074D+00 0.000000000000D+00 0.000000000000D+00
R02 2016 01 31 22 15 00 1.742541790009D-04 9.094947017729D-13 7.920000000000D+04
     9.305667968750D+03-3.660430908203D-01-0.000000000000D+00 0.000000000000D+00
    -1.846829248047D+04 2.015485763550D+00-9.313225746155D-10-4.000000000000D+00
    -1.487910009766D+04-2.728584289551D+00 1.862645149231D-09 0.000000000000D+00
R24 2016 01 31 22 15 00-1.332908868790D-04-0.000000000000D+00 7.920000000000D+04
     2.117461425781D+04 8.175506591797D-01 0.000000000000D+00 0.000000000000D+00
    -1.234890332031D+04-5.469179153442D-01-9.313225746155D-10 2.000000000000D+00
    -7.060554199219D+03 3.417605400085D+00 9.313225746155D-10 0.000000000000D+00
R13 2016 01 31 22 15 00 1.095607876778D-05-0.000000000000D+00 7.920000000000D+04
     9.297529296875D+03 2.535583496094D+00 9.313225746155D-10 0.000000000000D+00
    -6.191062011719D+03 1.860344886780D+00-9.313225746155D-10-2.000000000000D+00
     2.291694580078D+04-5.255508422852D-01-9.313225746155D-10 0.000000000000D+00
R15 2016 01 31 22 15 00 6.274133920670D-05 0.000000000000D+00 7.926000000000D+04
    -1.816132763672D+04 4.576282501221D-01 0.000000000000D+00 0.000000000000D+00
    -1.698949121094D+04 6.272592544556D-01-9.313225746155D-10 0.000000000000D+00
     5.426796386719D+03 3.511263847351D+00-9.313225746155D-10 0.000000000000D+00
R14 2016 01 31 22 45 00 2.758586779237D-04 4.547473508865D-12 8.100000000000D+04
    -3.495397460938D+03 2.515331268311D+00 9.313225746155D-10 0.000000000000D+00
    -1.322430957031D+04 1.552435874939D+00-1.862645149231D-09-7.000000000000D+00
     2.152878076172D+04 1.354721069336D+00-9.313225746155D-10 0.000000000000D+00
R04 2016 01 31 22 45 00 1.555010676384D-04 9.094947017729D-13 8.100000000000D+04
    -6.520072753906D+03-1.520719528198D-01 0.000000000000D+00 0.000000000000D+00
    -2.088478369141D+04-1.792714118958D+00-1.862645149231D-09 6.000000000000D+00
     1.311368750000D+04-2.933082580566D+00-9.313225746155D-10 0.000000000000D+00
R23 2016 01 31 22 45 00-7.617287337780D-05-3.637978807092D-12 8.100000000000D+04
     2.028605322266D+04-1.854411125183D+00 9.313225746155D-10 0.000000000000D+00
    -3.749394042969D+03 9.003763198853D-01-9.313225746155D-10 3.000000000000D+00
     1.500146142578D+04 2.732201576233D+00-0.000000000000D+00 0.000000000000D+00
R03 2016 01 31 22 45 00 6.131175905466D-05 0.000000000000D+00 8.100000000000D+04
     1.814240234375D+03-1.446552276611D-01 0.000000000000D+00 0.000000000000D+00
    -2.504322949219D+04 6.062459945679D-01-1.862645149231D-09 5.000000000000D+00
    -4.380901367188D+03-3.504117965698D+00 9.313225746155D-10 0.000000000000D+00
R15 2016 01 31 22 45 00 6.274227052927D-05 0.000000000000D+00 8.100000000000D+04
    -1.661598974609D+04 1.264909744263D+00 0.000000000000D+00 0.000000000000D+00
    -1.552605957031D+04 9.549293518066D-01-9.313225746155D-10 0.000000000000D+00
     1.145383300781D+04 3.141759872437D+00-9.313225746155D-10 0.000000000000D+00
R02 2016 01 31 22 45 00 1.742569729686D-04 9.094947017729D-13 8.100000000000D+04
     8.898146972656D+03-5.742740631104D-02-0.000000000000D+00 0.000000000000D+00
    -1.425257958984D+04 2.631282806396D+00-9.313225746155D-10-4.000000000000D+00
    -1.914950683594D+04-1.985387802124D+00 1.862645149231D-09 0.000000000000D+00
R24 2016 01 31 22 45 00-1.332918182015D-04-0.000000000000D+00 8.100000000000D+04
     2.188528808594D+04-1.769065856934D-02 0.000000000000D+00 0.000000000000D+00
    -1.307666308594D+04-2.208976745605D-01-9.313225746155D-10 2.000000000000D+00
    -7.153496093750D+02 3.586842536926D+00 9.313225746155D-10 0.000000000000D+00
R13 2016 01 31 22 45 00 1.095514744520D-05-0.000000000000D+00 8.100000000000D+04
     1.393360791016D+04 2.566743850708D+00 9.313225746155D-10 0.000000000000D+00
    -3.293529296875D+03 1.341448783875D+00-9.313225746155D-10-2.000000000000D+00
     2.109603613281D+04-1.484508514404D+00-9.313225746155D-10 0.000000000000D+00
R05 2016 01 31 22 45 00 1.927837729454D-07-9.094947017729D-13 8.241000000000D+04
    -1.098948095703D+04-8.887100219727D-02 9.313225746155D-10 0.000000000000D+00
    -4.871646972656D+03-3.080076217651D+00-9.313225746155D-10 1.000000000000D+00
     2.248397265625D+04-7.096242904663D-01-1.862645149231D-09 0.000000000000D+00
R14 2016 01 31 23 15 00 2.758670598269D-04 4.547473508865D-12 8.280000000000D+04
     1.435764648438D+03 2.922043800354D+00 9.313225746155D-10 0.000000000000D+00
    -1.068742138672D+04 1.234310150146D+00-1.862645149231D-09-7.000000000000D+00
     2.310313623047D+04 3.829994201660D-01-9.313225746155D-10 0.000000000000D+00
R04 2016 01 31 23 15 00 1.555038616061D-04 9.094947017729D-13 8.280000000000D+04
    -6.954572265625D+03-2.925662994385D-01 0.000000000000D+00 0.000000000000D+00
    -2.339840380859D+04-9.798412322998D-01-1.862645149231D-09 6.000000000000D+00
     7.395307128906D+03-3.379431724548D+00-0.000000000000D+00 0.000000000000D+00
R15 2016 01 31 23 15 00 6.274320185184D-05 0.000000000000D+00 8.280000000000D+04
    -1.362390087891D+04 2.045135498047D+00 0.000000000000D+00 0.000000000000D+00
    -1.371394091797D+04 1.013884544373D+00-1.862645149231D-09 0.000000000000D+00
     1.659059326172D+04 2.528663635254D+00-9.313225746155D-10 0.000000000000D+00
R23 2016 01 31 23 15 00-7.618032395840D-05-3.637978807092D-12 8.280000000000D+04
     1.663089697266D+04-2.158854484558D+00 9.313225746155D-10 0.000000000000D+00
    -1.566565917969D+03 1.526079177856D+00-9.313225746155D-10 3.000000000000D+00
     1.927589111328D+04 1.986330032349D+00-9.313225746155D-10 0.000000000000D+00
R03 2016 01 31 23 15 00 6.131362169981D-05 0.000000000000D+00 8.280000000000D+04
     1.711837402344D+03 6.803512573242D-02-0.000000000000D+00 0.000000000000D+00
    -2.318396191406D+04 1.439888954163D+00-1.862645149231D-09 5.000000000000D+00
    -1.043676660156D+04-3.180770874023D+00 1.862645149231D-09 0.000000000000D+00
R02 2016 01 31 23 15 00 1.742597669363D-04 9.094947017729D-13 8.280000000000D+04
     9.178589355469D+03 3.831148147583D-01-9.313225746155D-10 0.000000000000D+00
    -9.152022460938D+03 2.987839698792D+00-0.000000000000D+00-4.000000000000D+00
    -2.193388964844D+04-1.088252067566D+00 2.793967723846D-09 0.000000000000D+00
R24 2016 01 31 23 15 00-1.332918182015D-04-0.000000000000D+00 8.280000000000D+04
     2.118070458984D+04-7.373704910278D-01 0.000000000000D+00 0.000000000000D+00
    -1.301192285156D+04 3.241014480591D-01-9.313225746155D-10 2.000000000000D+00
     5.685157714844D+03 3.478603363037D+00 0.000000000000D+00 0.000000000000D+00
R13 2016 01 31 23 15 00 1.095421612263D-05-0.000000000000D+00 8.280000000000D+04
     1.835721289063D+04 2.298514366150D+00 0.000000000000D+00 0.000000000000D+00
    -1.392043457031D+03 7.723779678345D-01-9.313225746155D-10-2.000000000000D+00
     1.764193261719D+04-2.328407287598D+00-0.000000000000D+00 0.000000000000D+00
R05 2016 01 31 23 15 00 1.899898052216D-07-9.094947017729D-13 8.286000000000D+04
    -1.151967041016D+04-4.826755523682D-01 9.313225746155D-10 0.000000000000D+00
    -1.015905029297D+04-2.747777938843D+00-1.862645149231D-09 1.000000000000D+00
     2.035293310547D+04-1.642772674561D+00-1.862645149231D-09 0.000000000000D+00
R14 2016 01 31 23 45 00 2.758763730526D-04 4.547473508865D-12 8.460000000000D+04
     6.854752441406D+03 3.048171043396D+00 0.000000000000D+00 0.000000000000D+00
    -8.868099121094D+03 7.714529037476D-01-9.313225746155D-10-7.000000000000D+00
     2.288903710938D+04-6.195335388184D-01-9.313225746155D-10 0.000000000000D+00
